{
  "type": "FeatureCollection",
  "features": [
    {
      "type": "Feature",
      "properties": {
        "norad_id": 66926,
        "name": "STARLINK-35942",
        "group": "last-30-days",
        "lat": -13.48656391171691,
        "lon": -24.09780446284954,
        "alt_km": 392.3086125749205,
        "timestamp": "2025-12-25T14:48:23.571385+00:00",
        "meta_object_name": "STARLINK-35942",
        "meta_object_id": "2025-286B",
        "meta_epoch": "2025-12-25T06:00:04.000320",
        "meta_mean_motion": 15.60924742,
        "meta_eccentricity": 0.00012662,
        "meta_inclination": 53.1598,
        "meta_ra_of_asc_node": 348.0442,
        "meta_arg_of_pericenter": 70.7683,
        "meta_mean_anomaly": 10.6048,
        "meta_ephemeris_type": 0,
        "meta_classification_type": "U",
        "meta_norad_cat_id": 66926,
        "meta_element_set_no": 999,
        "meta_rev_at_epoch": 400,
        "meta_bstar": -0.026782931,
        "meta_mean_motion_dot": -0.02005752,
        "meta_mean_motion_ddot": 0,
        "tle_line1": "1 66926U 25286B   25359.25004630 -.02005752  00000+0 -26783-1 0  9995",
        "tle_line2": "2 66926  53.1598 348.0442 0001266  70.7683  10.6048 15.60924742  4006"
      },
      "geometry": {
        "type": "Point",
        "coordinates": [
          -24.09780446284954,
          -13.48656391171691
        ]
      }
    },
    {
      "type": "Feature",
      "properties": {
        "norad_id": 66927,
        "name": "STARLINK-35943",
        "group": "last-30-days",
        "lat": -11.975503498617224,
        "lon": -22.894151111640543,
        "alt_km": 392.1211018262502,
        "timestamp": "2025-12-25T14:48:23.571395+00:00",
        "meta_object_name": "STARLINK-35943",
        "meta_object_id": "2025-286C",
        "meta_epoch": "2025-12-25T06:00:04.000320",
        "meta_mean_motion": 15.609297,
        "meta_eccentricity": 0.00012517,
        "meta_inclination": 53.16,
        "meta_ra_of_asc_node": 348.0395,
        "meta_arg_of_pericenter": 70.8225,
        "meta_mean_anomaly": 12.4635,
        "meta_ephemeris_type": 0,
        "meta_classification_type": "U",
        "meta_norad_cat_id": 66927,
        "meta_element_set_no": 999,
        "meta_rev_at_epoch": 400,
        "meta_bstar": -0.026842989,
        "meta_mean_motion_dot": -0.02010019,
        "meta_mean_motion_ddot": 0,
        "tle_line1": "1 66927U 25286C   25359.25004630 -.02010019  00000+0 -26843-1 0  9995",
        "tle_line2": "2 66927  53.1600 348.0395 0001251  70.8225  12.4635 15.60929700  4006"
      },
      "geometry": {
        "type": "Point",
        "coordinates": [
          -22.894151111640543,
          -11.975503498617224
        ]
      }
    },
    {
      "type": "Feature",
      "properties": {
        "norad_id": 66928,
        "name": "STARLINK-35944",
        "group": "last-30-days",
        "lat": -14.991062211514288,
        "lon": -25.318062814318097,
        "alt_km": 392.4332959132689,
        "timestamp": "2025-12-25T14:48:23.571404+00:00",
        "meta_object_name": "STARLINK-35944",
        "meta_object_id": "2025-286D",
        "meta_epoch": "2025-12-25T06:00:04.000320",
        "meta_mean_motion": 15.6092746,
        "meta_eccentricity": 0.00012193,
        "meta_inclination": 53.1596,
        "meta_ra_of_asc_node": 348.0471,
        "meta_arg_of_pericenter": 67.0487,
        "meta_mean_anomaly": 12.4042,
        "meta_ephemeris_type": 0,
        "meta_classification_type": "U",
        "meta_norad_cat_id": 66928,
        "meta_element_set_no": 999,
        "meta_rev_at_epoch": 400,
        "meta_bstar": -0.026786975,
        "meta_mean_motion_dot": -0.02006169,
        "meta_mean_motion_ddot": 0,
        "tle_line1": "1 66928U 25286D   25359.25004630 -.02006169  00000+0 -26787-1 0  9994",
        "tle_line2": "2 66928  53.1596 348.0471 0001219  67.0487  12.4042 15.60927460  4001"
      },
      "geometry": {
        "type": "Point",
        "coordinates": [
          -25.318062814318097,
          -14.991062211514288
        ]
      }
    },
    {
      "type": "Feature",
      "properties": {
        "norad_id": 66929,
        "name": "STARLINK-36169",
        "group": "last-30-days",
        "lat": -10.461438225787019,
        "lon": -21.704487358654013,
        "alt_km": 392.0165468680798,
        "timestamp": "2025-12-25T14:48:23.571412+00:00",
        "meta_object_name": "STARLINK-36169",
        "meta_object_id": "2025-286E",
        "meta_epoch": "2025-12-25T06:00:04.000320",
        "meta_mean_motion": 15.60924189,
        "meta_eccentricity": 0.0001316,
        "meta_inclination": 53.16,
        "meta_ra_of_asc_node": 348.036,
        "meta_arg_of_pericenter": 77.4776,
        "meta_mean_anomaly": 7.7266,
        "meta_ephemeris_type": 0,
        "meta_classification_type": "U",
        "meta_norad_cat_id": 66929,
        "meta_element_set_no": 999,
        "meta_rev_at_epoch": 400,
        "meta_bstar": -0.026744895,
        "meta_mean_motion_dot": -0.02003255,
        "meta_mean_motion_ddot": 0,
        "tle_line1": "1 66929U 25286E   25359.25004630 -.02003255  00000+0 -26745-1 0  9992",
        "tle_line2": "2 66929  53.1600 348.0360 0001316  77.4776   7.7266 15.60924189  4009"
      },
      "geometry": {
        "type": "Point",
        "coordinates": [
          -21.704487358654013,
          -10.461438225787019
        ]
      }
    },
    {
      "type": "Feature",
      "properties": {
        "norad_id": 66930,
        "name": "STARLINK-36206",
        "group": "last-30-days",
        "lat": -8.940867596084917,
        "lon": -20.525876649704127,
        "alt_km": 391.73646985506184,
        "timestamp": "2025-12-25T14:48:23.571421+00:00",
        "meta_object_name": "STARLINK-36206",
        "meta_object_id": "2025-286F",
        "meta_epoch": "2025-12-25T06:00:04.000320",
        "meta_mean_motion": 15.60928568,
        "meta_eccentricity": 0.00013919,
        "meta_inclination": 53.1601,
        "meta_ra_of_asc_node": 348.0314,
        "meta_arg_of_pericenter": 71.5809,
        "meta_mean_anomaly": 15.5385,
        "meta_ephemeris_type": 0,
        "meta_classification_type": "U",
        "meta_norad_cat_id": 66930,
        "meta_element_set_no": 999,
        "meta_rev_at_epoch": 400,
        "meta_bstar": -0.026825737,
        "meta_mean_motion_dot": -0.02008914,
        "meta_mean_motion_ddot": 0,
        "tle_line1": "1 66930U 25286F   25359.25004630 -.02008914  00000+0 -26826-1 0  9991",
        "tle_line2": "2 66930  53.1601 348.0314 0001391  71.5809  15.5385 15.60928568  4000"
      },
      "geometry": {
        "type": "Point",
        "coordinates": [
          -20.525876649704127,
          -8.940867596084917
        ]
      }
    },
    {
      "type": "Feature",
      "properties": {
        "norad_id": 66931,
        "name": "STARLINK-36130",
        "group": "last-30-days",
        "lat": -7.4159636183035245,
        "lon": -19.355398762211575,
        "alt_km": 391.584975784589,
        "timestamp": "2025-12-25T14:48:23.571431+00:00",
        "meta_object_name": "STARLINK-36130",
        "meta_object_id": "2025-286G",
        "meta_epoch": "2025-12-25T06:00:04.000320",
        "meta_mean_motion": 15.60925933,
        "meta_eccentricity": 0.00013229,
        "meta_inclination": 53.16,
        "meta_ra_of_asc_node": 348.0281,
        "meta_arg_of_pericenter": 75.1601,
        "meta_mean_anomaly": 13.8776,
        "meta_ephemeris_type": 0,
        "meta_classification_type": "U",
        "meta_norad_cat_id": 66931,
        "meta_element_set_no": 999,
        "meta_rev_at_epoch": 400,
        "meta_bstar": -0.02678354,
        "meta_mean_motion_dot": -0.02005915,
        "meta_mean_motion_ddot": 0,
        "tle_line1": "1 66931U 25286G   25359.25004630 -.02005915  00000+0 -26784-1 0  9993",
        "tle_line2": "2 66931  53.1600 348.0281 0001322  75.1601  13.8776 15.60925933  4005"
      },
      "geometry": {
        "type": "Point",
        "coordinates": [
          -19.355398762211575,
          -7.4159636183035245
        ]
      }
    },
    {
      "type": "Feature",
      "properties": {
        "norad_id": 66932,
        "name": "STARLINK-36177",
        "group": "last-30-days",
        "lat": -5.888256053070416,
        "lon": -18.195029078168446,
        "alt_km": 391.3565956401717,
        "timestamp": "2025-12-25T14:48:23.571440+00:00",
        "meta_object_name": "STARLINK-36177",
        "meta_object_id": "2025-286H",
        "meta_epoch": "2025-12-25T06:00:04.000320",
        "meta_mean_motion": 15.60931729,
        "meta_eccentricity": 0.00013558,
        "meta_inclination": 53.1599,
        "meta_ra_of_asc_node": 348.023,
        "meta_arg_of_pericenter": 73.9076,
        "meta_mean_anomaly": 17.0435,
        "meta_ephemeris_type": 0,
        "meta_classification_type": "U",
        "meta_norad_cat_id": 66932,
        "meta_element_set_no": 999,
        "meta_rev_at_epoch": 400,
        "meta_bstar": -0.026874243,
        "meta_mean_motion_dot": -0.02012284,
        "meta_mean_motion_ddot": 0,
        "tle_line1": "1 66932U 25286H   25359.25004630 -.02012284  00000+0 -26874-1 0  9991",
        "tle_line2": "2 66932  53.1599 348.0230 0001355  73.9076  17.0435 15.60931729  4003"
      },
      "geometry": {
        "type": "Point",
        "coordinates": [
          -18.195029078168446,
          -5.888256053070416
        ]
      }
    }
  ]
}